{
    "links": {
        "self": "http://www.neowsapp.com/rest/v1/neo/3758272?api_key=iIulBulltgU6a56xZRHN4H3l9WmuAYTsLGpBGhQ2"
    },
    "id": "3758272",
    "neo_reference_id": "3758272",
    "name": "(2016 QY44)",
    "designation": "2016 QY44",
    "nasa_jpl_url": "http://ssd.jpl.nasa.gov/sbdb.cgi?sstr=3758272",
    "absolute_magnitude_h": 22.9,
    "estimated_diameter": {
        "kilometers": {
            "estimated_diameter_min": 0.0699125232,
            "estimated_diameter_max": 0.1563291544
        },
        "meters": {
            "estimated_diameter_min": 69.9125232246,
            "estimated_diameter_max": 156.3291544087
        },
        "miles": {
            "estimated_diameter_min": 0.0434416145,
            "estimated_diameter_max": 0.097138403
        },
        "feet": {
            "estimated_diameter_min": 229.3718026961,
            "estimated_diameter_max": 512.8909429502
        }
    },
    "is_potentially_hazardous_asteroid": false,
    "close_approach_data": [
        {
            "close_approach_date": "2016-07-29",
            "close_approach_date_full": "2016-Jul-29 21:52",
            "epoch_date_close_approach": 1469829120000,
            "relative_velocity": {
                "kilometers_per_second": "4.3827944348",
                "kilometers_per_hour": "15778.0599654563",
                "miles_per_hour": "9803.8728713137"
            },
            "miss_distance": {
                "astronomical": "0.2607361679",
                "lunar": "101.4263693131",
                "kilometers": "39005575.349802373",
                "miles": "24236940.6404958274"
            },
            "orbiting_body": "Earth"
        }
    ],
    "orbital_data": {
        "orbit_id": "2",
        "orbit_determination_date": "2017-04-06 08:24:18",
        "first_observation_date": "2016-08-08",
        "last_observation_date": "2016-08-30",
        "data_arc_in_days": 22,
        "observations_used": 18,
        "orbit_uncertainty": "7",
        "minimum_orbit_intersection": ".259748",
        "jupiter_tisserand_invariant": "3.604",
        "epoch_osculation": "2459000.5",
        "eccentricity": ".4018125191569353",
        "semi_major_axis": "2.130612602950531",
        "inclination": "7.506756037050917",
        "ascending_node_longitude": "129.4502541666449",
        "orbital_period": "1135.939402654622",
        "perihelion_distance": "1.274505785611463",
        "perihelion_argument": "176.8524430454345",
        "aphelion_distance": "2.986719420289599",
        "perihelion_time": "2458733.035884972506",
        "mean_anomaly": "84.76427632044521",
        "mean_motion": ".3169183137398894",
        "equinox": "J2000",
        "orbit_class": {
            "orbit_class_type": "AMO",
            "orbit_class_description": "Near-Earth asteroid orbits similar to that of 1221 Amor",
            "orbit_class_range": "1.017 AU < q (perihelion) < 1.3 AU"
        }
    },
    "is_sentry_object": false
}